OBJECT_NAME,OBJECT_ID,EPOCH,MEAN_MOTION,ECCENTRICITY,INCLINATION,RA_OF_ASC_NODE,ARG_OF_PERICENTER,MEAN_ANOMALY,EPHEMERIS_TYPE,CLASSIFICATION_TYPE,NORAD_CAT_ID,ELEMENT_SET_NO,REV_AT_EPOCH,BSTAR,MEAN_MOTION_DOT,MEAN_MOTION_DDOT
STARLINK-5901,2023-042P,2026-06-29T14:31:34.432032,15.27574652,.00009933,43.0003,147.7226,263.1840,96.8899,0,U,55999,999,17998,.3602279E-4,.729E-5,0
STARLINK-5910,2023-042Q,2026-06-30T21:30:38.590272,15.27586317,.00010774,42.9889,140.1930,177.3107,182.7751,0,U,56000,999,18018,-.5323633E-4,-.1727E-4,0
STARLINK-5944,2023-042R,2026-06-30T21:22:44.714784,15.27590994,.0001857,43.0049,144.4393,280.0265,80.0377,0,U,56001,999,18013,.33579551E-4,.662E-5,0
STARLINK-5799,2023-042S,2026-06-30T21:25:05.399040,15.27580721,.00014405,43.0027,140.1796,276.3710,83.6978,0,U,56002,999,18018,.47613711E-4,.1048E-4,0
STARLINK-5789,2023-042T,2026-06-29T14:42:41.647392,15.27575399,.00003336,43.0014,147.7751,130.8239,229.2642,0,U,56003,999,17998,-.407713E-4,-.1383E-4,0
STARLINK-5787,2023-042U,2026-06-30T09:15:11.343744,15.27581131,.00012553,43.0021,146.6709,264.0145,96.0564,0,U,56004,999,18006,.35557843E-4,.717E-5,0
STARLINK-5801,2023-042V,2026-06-30T08:38:23.735616,15.27587505,.00017155,43.0032,147.3362,299.5775,60.4906,0,U,56005,999,18005,-.62153478E-4,-.1973E-4,0
STARLINK-5794,2023-042W,2026-06-30T23:07:17.641632,15.27579586,.00012653,43.0035,147.5327,265.4650,94.6057,0,U,56006,999,18010,.8510902E-5,-.28E-6,0
STARLINK-5806,2023-042X,2026-06-30T21:36:13.080096,15.27549539,.00020315,43.0006,140.2332,280.7750,79.2873,0,U,56007,999,18018,.33746179E-3,.9027E-4,0
STARLINK-5803,2023-042Y,2026-06-30T22:55:32.815488,15.27576547,.00014688,43.0023,139.7838,265.7541,94.3143,0,U,56008,999,18018,.37147048E-4,.76E-5,0
STARLINK-5964,2023-042Z,2026-06-30T09:05:55.556736,15.27575542,.00019632,43.0039,146.6228,272.6914,87.3713,0,U,56009,999,18006,.20853996E-4,.311E-5,0
STARLINK-5968,2023-042AA,2026-06-30T21:41:44.717856,15.27583305,.00011957,43.0021,140.2623,272.2195,87.8520,0,U,56010,999,18018,-.21449264E-4,-.852E-5,0
STARLINK-5936,2023-042AB,2026-06-30T22:00:58.314240,15.27577695,.00015549,43.0008,125.6556,268.4878,91.5796,0,U,56011,999,18035,.65199434E-4,.1532E-4,0
STARLINK-5940,2023-042AC,2026-06-29T23:36:53.824320,15.27575316,.00013456,43.0038,130.6957,274.9960,85.0738,0,U,56012,999,18021,-.51591786E-4,-.1681E-4,0
STARLINK-5941,2023-042AD,2026-06-30T21:56:32.742240,15.27575895,.00011318,43.0019,140.3364,263.7059,96.3664,0,U,56013,999,18018,.17988538E-4,.233E-5,0
STARLINK-5942,2023-042AE,2026-06-30T20:32:22.252704,15.27577230,.00011634,43.0051,126.0613,226.0674,134.0082,0,U,56014,999,18034,-.95594183E-4,-.2891E-4,0
STARLINK-5939,2023-042AF,2026-06-30T21:46:10.299360,15.27576158,.00015977,43.0025,125.5841,265.5014,94.5655,0,U,56015,999,18035,.63245707E-4,.1478E-4,0
STARLINK-5943,2023-042AG,2026-06-30T21:14:55.932576,15.27586254,.00008159,43.0034,126.2657,267.6771,92.3988,0,U,56016,999,18034,.30421937E-4,.575E-5,0
STARLINK-5934,2023-042AH,2026-06-29T13:29:35.769984,15.27577951,.00010409,43.0016,133.5427,245.1878,114.8866,0,U,56017,999,18014,.12113885E-4,.71E-6,0
STARLINK-5945,2023-042AJ,2026-06-30T21:09:21.580992,15.27593536,.00018327,43.0030,126.2362,278.9779,81.0865,0,U,56018,999,18034,.10451336E-3,.2616E-4,0
STARLINK-5949,2023-042AK,2026-06-30T20:43:28.474464,15.27578041,.00019129,43.0021,126.1096,272.4945,87.5688,0,U,56019,999,18034,.31019996E-4,.591E-5,0
STARLINK-5912,2023-042AL,2026-06-30T21:03:49.288320,15.27581216,.00006598,43.0023,126.2135,244.0818,115.9966,0,U,56020,999,18034,.36954839E-4,.755E-5,0
STARLINK-5907,2023-042AM,2026-06-30T03:42:33.548544,15.27578031,.00011671,43.0019,130.2478,145.7134,214.3794,0,U,56021,999,18023,.20163289E-4,.293E-5,0
STARLINK-5783,2023-042AN,2026-06-30T19:59:03.553728,15.27577197,.00022141,43.0045,125.8777,267.9187,92.1411,0,U,56022,999,18034,.33832946E-4,.669E-5,0
STARLINK-5771,2023-042AP,2026-06-30T21:24:10.649088,15.27575868,.00009281,43.0033,126.3137,271.5447,88.5298,0,U,56023,999,18034,.13751839E-4,.116E-5,0
STARLINK-5772,2023-042AQ,2026-06-30T21:49:52.419936,15.27577034,.00011576,43.0022,125.5887,243.9846,116.0887,0,U,56024,999,18035,.22217437E-4,.349E-5,0
STARLINK-5766,2023-042AR,2026-06-30T21:22:19.476480,15.27577979,.00009074,43.0024,126.3011,267.5635,92.5113,0,U,56025,999,18034,.228537E-4,.367E-5,0
STARLINK-5770,2023-042AS,2026-06-30T21:38:46.208544,15.27577544,.00015203,43.0033,125.5394,275.0735,84.9944,0,U,56026,999,18034,.26737568E-4,.474E-5,0
STARLINK-5777,2023-042AT,2026-06-30T21:31:21.951840,15.27577996,.00015719,43.0040,125.5007,270.3932,89.6739,0,U,56027,999,18035,.1749324E-4,.219E-5,0
STARLINK-5779,2023-042AU,2026-06-30T20:30:31.023072,15.27572193,.00011146,43.0019,126.0349,259.9051,100.1675,0,U,56028,999,18034,-.14282703E-4,-.655E-5,0
STARLINK-5774,2023-042AV,2026-06-29T23:46:07.853088,15.27574291,.00017291,43.0031,130.7317,269.6171,90.4482,0,U,56029,999,18021,.3517438E-4,.706E-5,0
STARLINK-5781,2023-042AW,2026-06-30T20:36:03.836736,15.27580264,.00014108,43.0023,126.0613,268.2482,91.8208,0,U,56030,999,18034,.7978539E-5,-.43E-6,0
STARLINK-5785,2023-042AX,2026-06-30T20:19:24.924864,15.27578965,.00016071,43.0034,125.9810,264.4414,95.6255,0,U,56031,999,18034,.30268171E-4,.571E-5,0
STARLINK-5786,2023-042AY,2026-06-30T03:40:42.213504,15.27575727,.00011837,42.9991,130.2296,268.1575,91.9141,0,U,56032,999,18023,.10218326E-4,.19E-6,0
STARLINK-5782,2023-042BA,2026-06-29T21:35:08.620512,15.27657089,.00011341,43.0021,131.7611,255.0856,104.9871,0,U,56034,999,18019,-.7417922E-3,-.20666E-3,0
STARLINK-5792,2023-042BB,2026-06-30T20:41:37.273344,15.27577024,.00011739,43.0019,126.0904,262.6201,97.4517,0,U,56035,999,18034,.11199456E-4,.46E-6,0
STARLINK-5790,2023-042BC,2026-06-30T20:54:34.377408,15.27576666,.00005965,43.0008,126.1421,215.7321,144.3491,0,U,56036,999,18034,.6072435E-5,-.95E-6,0
STARLINK-5758,2023-042BD,2026-06-30T21:11:55.795488,15.27619742,.00015547,43.0008,111.4887,249.9363,110.1321,0,U,56037,999,18051,-.31889202E-3,-.9038E-4,0
STARLINK-5793,2023-042BE,2026-06-30T21:18:45.470592,15.27470753,.00016036,43.0026,126.2775,157.2365,202.8558,0,U,56038,999,18034,-.56744702E-3,-.15792E-3,0
STARLINK-5795,2023-042BF,2026-06-30T20:03:41.369472,15.27577206,.00008773,43.0022,111.9937,255.6930,104.3824,0,U,56039,999,18050,.15239616E-4,.157E-5,0
STARLINK-5798,2023-042BG,2026-06-30T02:53:31.177536,15.27573830,.00006515,43.0026,116.0741,252.8374,107.2407,0,U,56040,999,18039,.2257803E-5,-.2E-5,0
STARLINK-5800,2023-042BH,2026-06-30T19:20:26.001600,15.27581872,.00014454,43.0045,115.1635,261.5118,98.5570,0,U,56041,999,18046,.81557517E-4,.1983E-4,0
ONEWEB-0537,2023-043A,2026-06-30T13:40:53.276448,13.16595197,.0002243,87.9088,226.1135,94.1119,266.0269,0,U,56046,999,16072,.65429872E-4,.38E-6,0
ONEWEB-0538,2023-043B,2026-06-30T13:31:45.880608,13.16594461,.00022475,87.9089,226.1174,101.2688,258.8696,0,U,56047,999,16073,-.2827796E-3,-.95E-6,0
ONEWEB-0546,2023-043C,2026-06-30T04:06:20.676960,13.16595551,.00026253,87.9088,226.1956,85.6907,274.4524,0,U,56048,999,16067,.21538962E-3,.95E-6,0
ONEWEB-0547,2023-043D,2026-06-30T13:41:47.959008,13.21826626,.00020967,87.9250,241.3118,103.2120,256.9248,0,U,56049,999,15999,.13699205E-3,.7E-6,0
ONEWEB-0548,2023-043E,2026-06-30T13:48:51.617952,13.16593897,.00017145,87.9085,226.1112,84.8002,275.3324,0,U,56050,999,16072,.33862233E-3,.142E-5,0
ONEWEB-0549,2023-043F,2026-06-30T04:28:18.832512,13.21826473,.00023491,87.9242,241.3940,105.0238,255.1156,0,U,56051,999,15994,.2962696E-3,.135E-5,0
ONEWEB-0550,2023-043G,2026-06-30T22:18:58.615776,13.21826451,.0001836,87.9244,241.2438,96.4617,263.6726,0,U,56052,999,16004,.43248583E-4,.31E-6,0
ONEWEB-0551,2023-043H,2026-06-30T22:07:06.233088,13.15547255,.00021914,87.8994,256.4904,108.4997,251.6371,0,U,56053,999,15820,-.25639232E-3,-.84E-6,0
ONEWEB-0552,2023-043J,2026-06-30T22:11:40.541856,13.21825580,.00019344,87.9240,241.2501,103.5059,256.6290,0,U,56054,999,16004,.81353083E-4,.47E-6,0
ONEWEB-0553,2023-043K,2026-06-30T11:33:12.410496,13.16594732,.00022836,87.9087,226.1342,86.8566,273.2826,0,U,56055,999,16072,-.16454113E-4,.7E-7,0
ONEWEB-0554,2023-043L,2026-06-30T03:57:13.947264,13.16595662,.00016911,87.9084,226.2060,84.2854,275.8470,0,U,56056,999,16066,.10127244E-3,.52E-6,0
ONEWEB-0555,2023-043M,2026-06-30T03:02:30.054336,13.16593148,.0002471,87.9091,226.2020,85.3264,274.8150,0,U,56057,999,16066,.15582243E-3,.72E-6,0
ONEWEB-0557,2023-043N,2026-06-30T03:23:01.326048,13.16595150,.00021155,87.9088,226.2087,60.1716,299.9625,0,U,56058,999,16066,.16786173E-3,.77E-6,0
ONEWEB-0558,2023-043P,2026-06-30T14:45:58.744800,13.21825150,.00023194,87.9246,241.3068,102.4405,257.6988,0,U,56059,999,16001,.11661447E-3,.61E-6,0
ONEWEB-0559,2023-043Q,2026-06-30T21:45:01.507680,13.21826319,.0002052,87.9248,241.2445,102.9655,257.1708,0,U,56060,999,16006,.18635242E-3,.9E-6,0
ONEWEB-0566,2023-043R,2026-06-30T14:19:19.759872,13.21827583,.00021087,87.9248,241.3038,106.9592,253.1774,0,U,56061,999,16000,.17725034E-3,.86E-6,0
ONEWEB-0568,2023-043S,2026-06-30T12:55:18.503904,13.16595189,.00022664,87.9087,226.1197,90.3363,269.8028,0,U,56062,999,16073,-.13588532E-3,-.39E-6,0
ONEWEB-0574,2023-043T,2026-06-30T14:09:40.065984,13.21825237,.00019479,87.9253,241.3094,92.3297,267.8060,0,U,56063,999,16004,.19839773E-3,.95E-6,0
ONEWEB-0575,2023-043U,2026-06-30T03:38:59.891712,13.16595407,.00020254,87.9087,226.1929,83.4540,276.6822,0,U,56064,999,16067,.10058401E-3,.51E-6,0
ONEWEB-0576,2023-043V,2026-06-30T03:11:37.887360,13.16594765,.00019945,87.9092,226.2048,88.6044,271.5315,0,U,56065,999,16066,.23554289E-3,.103E-5,0
ONEWEB-0577,2023-043W,2026-06-30T03:20:46.004640,13.16594242,.00017578,87.9091,226.2009,73.2989,286.8335,0,U,56066,999,16069,.58165349E-4,.35E-6,0
ONEWEB-0578,2023-043X,2026-06-30T13:50:17.617056,13.21825707,.00022798,87.9250,241.3088,91.3625,268.7770,0,U,56067,999,16000,.71288063E-4,.42E-6,0
